STARLINK-31235          
1 59038U 24038R   26068.91695407 -.00002892  00000+0 -95598-4 0  9997
2 59038  43.0064  22.2255 0001485 278.0699  81.9984 15.27580795114836
ARCSTONE                
1 64540U 25135N   26068.88991918  .00026427  00000+0  94900-3 0  9995
2 64540  97.4495 185.9194 0004120 166.7863 193.3485 15.28638458 39847
